{"type": "FeatureCollection", "features": [ {"type": "Feature", "properties": {"norad_id": 36441, "name": "COSMOS 2251 DEB", "group": "cosmos-2251-debris", "lat": -18.902680282919142, "lon": -38.284741204471594, "alt_km": 541.3351448837147, "timestamp": "2025-12-23T11:34:48.557563+00:00", "meta": {"OBJECT_NAME": "COSMOS 2251 DEB", "OBJECT_ID": "1993-036BAQ", "EPOCH": "2025-12-18T05:47:29.908032", "MEAN_MOTION": 15.06846048, "ECCENTRICITY": 0.01082047, "INCLINATION": 73.8354, "RA_OF_ASC_NODE": 338.3111, "ARG_OF_PERICENTER": 76.0854, "MEAN_ANOMALY": 285.2342, "EPHEMERIS_TYPE": 0, "CLASSIFICATION_TYPE": "U", "NORAD_CAT_ID": 36441, "ELEMENT_SET_NO": 999, "REV_AT_EPOCH": 87048, "BSTAR": 0.0004365334, "MEAN_MOTION_DOT": 7.404e-05, "MEAN_MOTION_DDOT": 0}, "tle": {"line1": "1 36441U 93036BAQ 25352.24131838  .00007404  00000+0  43653-3 0  9994", "line2": "2 36441  73.8354 338.3111 0108204  76.0854 285.2342 15.06846048870480"}}, "geometry": {"type": "Point", "coordinates": [-38.284741204471594, -18.902680282919142]}}, {"type": "Feature", "properties": {"norad_id": 36442, "name": "COSMOS 2251 DEB", "group": "cosmos-2251-debris", "lat": -1.6268915615955348, "lon": 15.75091891775594, "alt_km": 465.9461923768731, "timestamp": "2025-12-23T11:34:48.557573+00:00", "meta": {"OBJECT_NAME": "COSMOS 2251 DEB", "OBJECT_ID": "1993-036BAR", "EPOCH": "2025-12-21T18:51:31.867200", "MEAN_MOTION": 15.32486394, "ECCENTRICITY": 0.00080169, "INCLINATION": 73.9482, "RA_OF_ASC_NODE": 19.8637, "ARG_OF_PERICENTER": 316.0651, "MEAN_ANOMALY": 43.9914, "EPHEMERIS_TYPE": 0, "CLASSIFICATION_TYPE": "U", "NORAD_CAT_ID": 36442, "ELEMENT_SET_NO": 999, "REV_AT_EPOCH": 86054, "BSTAR": 0.0050536247, "MEAN_MOTION_DOT": 0.00162161, "MEAN_MOTION_DDOT": 0}, "tle": {"line1": "1 36442U 93036BAR 25355.78578550  .00162161  00000+0  50536-2 0  9992", "line2": "2 36442  73.9482  19.8637 0008016 316.0651  43.9914 15.32486394860543"}}, "geometry": {"type": "Point", "coordinates": [15.75091891775594, -1.6268915615955348]}}, {"type": "Feature", "properties": {"norad_id": 36451, "name": "COSMOS 2251 DEB", "group": "cosmos-2251-debris", "lat": -24.33649907563297, "lon": 143.4226398582665, "alt_km": 781.5798762141221, "timestamp": "2025-12-23T11:34:48.557583+00:00", "meta": {"OBJECT_NAME": "COSMOS 2251 DEB", "OBJECT_ID": "1993-036BBA", "EPOCH": "2025-12-17T15:51:47.903904", "MEAN_MOTION": 14.18761243, "ECCENTRICITY": 0.01833733, "INCLINATION": 73.9538, "RA_OF_ASC_NODE": 326.3887, "ARG_OF_PERICENTER": 149.6881, "MEAN_ANOMALY": 211.5024, "EPHEMERIS_TYPE": 0, "CLASSIFICATION_TYPE": "U", "NORAD_CAT_ID": 36451, "ELEMENT_SET_NO": 999, "REV_AT_EPOCH": 84295, "BSTAR": 0.0004725236, "MEAN_MOTION_DOT": 1.135e-05, "MEAN_MOTION_DDOT": 0}, "tle": {"line1": "1 36451U 93036BBA 25351.66097111  .00001135  00000+0  47252-3 0  9999", "line2": "2 36451  73.9538 326.3887 0183373 149.6881 211.5024 14.18761243842955"}}, "geometry": {"type": "Point", "coordinates": [143.4226398582665, -24.33649907563297]}}, {"type": "Feature", "properties": {"norad_id": 36453, "name": "COSMOS 2251 DEB", "group": "cosmos-2251-debris", "lat": -32.70685896093478, "lon": 121.31827197130553, "alt_km": 702.404161859039, "timestamp": "2025-12-23T11:34:48.557597+00:00", "meta": {"OBJECT_NAME": "COSMOS 2251 DEB", "OBJECT_ID": "1993-036BBC", "EPOCH": "2025-12-22T19:53:39.232320", "MEAN_MOTION": 14.52671093, "ECCENTRICITY": 0.00706202, "INCLINATION": 73.9241, "RA_OF_ASC_NODE": 133.2304, "ARG_OF_PERICENTER": 33.762, "MEAN_ANOMALY": 116.2668, "EPHEMERIS_TYPE": 0, "CLASSIFICATION_TYPE": "U", "NORAD_CAT_ID": 36453, "ELEMENT_SET_NO": 999, "REV_AT_EPOCH": 84614, "BSTAR": 0.00082517813, "MEAN_MOTION_DOT": 3.465e-05, "MEAN_MOTION_DDOT": 0}, "tle": {"line1": "1 36453U 93036BBC 25356.82892630  .00003465  00000+0  82518-3 0  9995", "line2": "2 36453  73.9241 133.2304 0070620  33.7620 116.2668 14.52671093846142"}}, "geometry": {"type": "Point", "coordinates": [121.31827197130553, -32.70685896093478]}}, {"type": "Feature", "properties": {"norad_id": 36459, "name": "COSMOS 2251 DEB", "group": "cosmos-2251-debris", "lat": -46.25001781358954, "lon": -36.99884893376582, "alt_km": 852.3656415202076, "timestamp": "2025-12-23T11:34:48.557619+00:00", "meta": {"OBJECT_NAME": "COSMOS 2251 DEB", "OBJECT_ID": "1993-036BBJ", "EPOCH": "2025-12-20T06:23:01.272480", "MEAN_MOTION": 14.26454896, "ECCENTRICITY": 0.0113312, "INCLINATION": 74.0464, "RA_OF_ASC_NODE": 346.1968, "ARG_OF_PERICENTER": 79.9168, "MEAN_ANOMALY": 281.4741, "EPHEMERIS_TYPE": 0, "CLASSIFICATION_TYPE": "U", "NORAD_CAT_ID": 36459, "ELEMENT_SET_NO": 999, "REV_AT_EPOCH": 7989, "BSTAR": 0.00092616994, "MEAN_MOTION_DOT": 2.362e-05, "MEAN_MOTION_DDOT": 0}, "tle": {"line1": "1 36459U 93036BBJ 25354.26598695  .00002362  00000+0  92617-3 0  9997", "line2": "2 36459  74.0464 346.1968 0113312  79.9168 281.4741 14.26454896 79891"}}, "geometry": {"type": "Point", "coordinates": [-36.99884893376582, -46.25001781358954]}}, {"type": "Feature", "properties": {"norad_id": 36470, "name": "COSMOS 2251 DEB", "group": "cosmos-2251-debris", "lat": -68.98653383098318, "lon": 101.05054610732468, "alt_km": 563.6170420324652, "timestamp": "2025-12-23T11:34:48.557628+00:00", "meta": {"OBJECT_NAME": "COSMOS 2251 DEB", "OBJECT_ID": "1993-036BBV", "EPOCH": "2025-12-15T00:13:00.014016", "MEAN_MOTION": 15.07582269, "ECCENTRICITY": 0.00222568, "INCLINATION": 73.8449, "RA_OF_ASC_NODE": 249.6845, "ARG_OF_PERICENTER": 78.1368, "MEAN_ANOMALY": 282.2316, "EPHEMERIS_TYPE": 0, "CLASSIFICATION_TYPE": "U", "NORAD_CAT_ID": 36470, "ELEMENT_SET_NO": 999, "REV_AT_EPOCH": 66128, "BSTAR": 0.0018721064, "MEAN_MOTION_DOT": 0.0002872, "MEAN_MOTION_DDOT": 0}, "tle": {"line1": "1 36470U 93036BBV 25349.00902794  .00028720  00000+0  18721-2 0  9994", "line2": "2 36470  73.8449 249.6845 0022256  78.1368 282.2316 15.07582269661287"}}, "geometry": {"type": "Point", "coordinates": [101.05054610732468, -68.98653383098318]}}, {"type": "Feature", "properties": {"norad_id": 36528, "name": "COSMOS 2251 DEB", "group": "cosmos-2251-debris", "lat": -47.66306571085841, "lon": -36.02361476943753, "alt_km": 762.8340789144122, "timestamp": "2025-12-23T11:34:48.557637+00:00", "meta": {"OBJECT_NAME": "COSMOS 2251 DEB", "OBJECT_ID": "1993-036BCN", "EPOCH": "2025-12-23T02:07:16.025088", "MEAN_MOTION": 14.30700517, "ECCENTRICITY": 0.0084304, "INCLINATION": 74.0164, "RA_OF_ASC_NODE": 126.3587, "ARG_OF_PERICENTER": 173.6908, "MEAN_ANOMALY": 186.5326, "EPHEMERIS_TYPE": 0, "CLASSIFICATION_TYPE": "U", "NORAD_CAT_ID": 36528, "ELEMENT_SET_NO": 999, "REV_AT_EPOCH": 64575, "BSTAR": 0.0012053, "MEAN_MOTION_DOT": 3.253e-05, "MEAN_MOTION_DDOT": 0}, "tle": {"line1": "1 36528U 93036BCN 25357.08837992  .00003253  00000+0  12053-2 0  9998", "line2": "2 36528  74.0164 126.3587 0084304 173.6908 186.5326 14.30700517645759"}}, "geometry": {"type": "Point", "coordinates": [-36.02361476943753, -47.66306571085841]}}, {"type": "Feature", "properties": {"norad_id": 36533, "name": "COSMOS 2251 DEB", "group": "cosmos-2251-debris", "lat": 45.321914787265165, "lon": 111.48582594338679, "alt_km": 755.8361905655956, "timestamp": "2025-12-23T11:34:48.557646+00:00", "meta": {"OBJECT_NAME": "COSMOS 2251 DEB", "OBJECT_ID": "1993-036BCT", "EPOCH": "2025-12-20T07:10:55.572384", "MEAN_MOTION": 14.49841548, "ECCENTRICITY": 0.00492519, "INCLINATION": 74.0124, "RA_OF_ASC_NODE": 100.614, "ARG_OF_PERICENTER": 248.4514, "MEAN_ANOMALY": 111.1393, "EPHEMERIS_TYPE": 0, "CLASSIFICATION_TYPE": "U", "NORAD_CAT_ID": 36533, "ELEMENT_SET_NO": 999, "REV_AT_EPOCH": 84594, "BSTAR": 0.00033689925, "MEAN_MOTION_DOT": 1.292e-05, "MEAN_MOTION_DDOT": 0}, "tle": {"line1": "1 36533U 93036BCT 25354.29925431  .00001292  00000+0  33690-3 0  9992", "line2": "2 36533  74.0124 100.6140 0049251 248.4514 111.1393 14.49841548845948"}}, "geometry": {"type": "Point", "coordinates": [111.48582594338679, 45.321914787265165]}}, {"type": "Feature", "properties": {"norad_id": 36539, "name": "COSMOS 2251 DEB", "group": "cosmos-2251-debris", "lat": -69.07338379146745, "lon": -96.78962215553734, "alt_km": 698.3539982275015, "timestamp": "2025-12-23T11:34:48.557655+00:00", "meta": {"OBJECT_NAME": "COSMOS 2251 DEB", "OBJECT_ID": "1993-036BCZ", "EPOCH": "2025-12-23T03:49:47.713728", "MEAN_MOTION": 14.59361333, "ECCENTRICITY": 0.0026536, "INCLINATION": 74.0227, "RA_OF_ASC_NODE": 35.3016, "ARG_OF_PERICENTER": 178.4926, "MEAN_ANOMALY": 181.6325, "EPHEMERIS_TYPE": 0, "CLASSIFICATION_TYPE": "U", "NORAD_CAT_ID": 36539, "ELEMENT_SET_NO": 999, "REV_AT_EPOCH": 84099, "BSTAR": 0.00063693, "MEAN_MOTION_DOT": 3e-05, "MEAN_MOTION_DDOT": 0}, "tle": {"line1": "1 36539U 93036BCZ 25357.15958002  .00003000  00000+0  63693-3 0  9991", "line2": "2 36539  74.0227  35.3016 0026536 178.4926 181.6325 14.59361333840991"}}, "geometry": {"type": "Point", "coordinates": [-96.78962215553734, -69.07338379146745]}}, {"type": "Feature", "properties": {"norad_id": 36540, "name": "COSMOS 2251 DEB", "group": "cosmos-2251-debris", "lat": -6.541626134526584, "lon": -18.060609915075865, "alt_km": 693.5916702186105, "timestamp": "2025-12-23T11:34:48.557664+00:00", "meta": {"OBJECT_NAME": "COSMOS 2251 DEB", "OBJECT_ID": "1993-036BDA", "EPOCH": "2025-12-21T17:34:21.856224", "MEAN_MOTION": 14.58559476, "ECCENTRICITY": 0.00147091, "INCLINATION": 74.0275, "RA_OF_ASC_NODE": 163.3898, "ARG_OF_PERICENTER": 233.2895, "MEAN_ANOMALY": 126.6919, "EPHEMERIS_TYPE": 0, "CLASSIFICATION_TYPE": "U", "NORAD_CAT_ID": 36540, "ELEMENT_SET_NO": 999, "REV_AT_EPOCH": 86141, "BSTAR": 0.0008910607, "MEAN_MOTION_DOT": 4.123e-05, "MEAN_MOTION_DDOT": 0}, "tle": {"line1": "1 36540U 93036BDA 25355.73219741  .00004123  00000+0  89106-3 0  9999", "line2": "2 36540  74.0275 163.3898 0014709 233.2895 126.6919 14.58559476861414"}}, "geometry": {"type": "Point", "coordinates": [-18.060609915075865, -6.541626134526584]}}]}